CSS (TIANHE)            
1 48274U 21035A   24040.58266211  .00042923  00000+0  45342-3 0  9997
2 48274  41.4685 148.9102 0007866 334.0135  26.0309 15.63368820158967
